{
  "type": "FeatureCollection",
  "features": [
    {
      "type": "Feature",
      "properties": {
        "norad_id": 34056,
        "name": "COSMOS 2251 DEB",
        "group": "cosmos-2251-debris",
        "lat": -57.57211644203484,
        "lon": 22.987929776138515,
        "alt_km": 910.5425613729049,
        "timestamp": "2025-12-27T15:27:11.588044+00:00",
        "meta_object_name": "COSMOS 2251 DEB",
        "meta_object_id": "1993-036JT",
        "meta_epoch": "2025-12-27T05:55:20.508960",
        "meta_mean_motion": 14.20606247,
        "meta_eccentricity": 0.01236642,
        "meta_inclination": 74.058,
        "meta_ra_of_asc_node": 50.4361,
        "meta_arg_of_pericenter": 94.4522,
        "meta_mean_anomaly": 334.6919,
        "meta_ephemeris_type": 0,
        "meta_classification_type": "U",
        "meta_norad_cat_id": 34056,
        "meta_element_set_no": 999,
        "meta_rev_at_epoch": 86617,
        "meta_bstar": 0.00075633868,
        "meta_mean_motion_dot": 1.734e-05,
        "meta_mean_motion_ddot": 0,
        "tle_line1": "1 34056U 93036JT  25361.24676515  .00001734  00000+0  75634-3 0  9994",
        "tle_line2": "2 34056  74.0580  50.4361 0123664  94.4522 334.6919 14.20606247866176"
      },
      "geometry": {
        "type": "Point",
        "coordinates": [
          22.987929776138515,
          -57.57211644203484
        ]
      }
    },
    {
      "type": "Feature",
      "properties": {
        "norad_id": 34058,
        "name": "COSMOS 2251 DEB",
        "group": "cosmos-2251-debris",
        "lat": -54.14012278573775,
        "lon": -2.5468223213799543,
        "alt_km": 1051.2496909230476,
        "timestamp": "2025-12-27T15:27:11.588055+00:00",
        "meta_object_name": "COSMOS 2251 DEB",
        "meta_object_id": "1993-036JV",
        "meta_epoch": "2025-12-27T04:33:50.478048",
        "meta_mean_motion": 13.56100169,
        "meta_eccentricity": 0.03772543,
        "meta_inclination": 73.9319,
        "meta_ra_of_asc_node": 154.6898,
        "meta_arg_of_pericenter": 147.1777,
        "meta_mean_anomaly": 31.7339,
        "meta_ephemeris_type": 0,
        "meta_classification_type": "U",
        "meta_norad_cat_id": 34058,
        "meta_element_set_no": 999,
        "meta_rev_at_epoch": 83338,
        "meta_bstar": 0.00089679798,
        "meta_mean_motion_dot": 9.75e-06,
        "meta_mean_motion_ddot": 0,
        "tle_line1": "1 34058U 93036JV  25361.19016757  .00000975  00000+0  89680-3 0  9998",
        "tle_line2": "2 34058  73.9319 154.6898 0377254 147.1777  31.7339 13.56100169833380"
      },
      "geometry": {
        "type": "Point",
        "coordinates": [
          -2.5468223213799543,
          -54.14012278573775
        ]
      }
    },
    {
      "type": "Feature",
      "properties": {
        "norad_id": 34059,
        "name": "COSMOS 2251 DEB",
        "group": "cosmos-2251-debris",
        "lat": -63.31872697034724,
        "lon": 12.877395905019373,
        "alt_km": 709.9355633164068,
        "timestamp": "2025-12-27T15:27:11.588065+00:00",
        "meta_object_name": "COSMOS 2251 DEB",
        "meta_object_id": "1993-036JW",
        "meta_epoch": "2025-12-27T03:18:44.052768",
        "meta_mean_motion": 14.53039791,
        "meta_eccentricity": 0.00183494,
        "meta_inclination": 74.0378,
        "meta_ra_of_asc_node": 159.1128,
        "meta_arg_of_pericenter": 235.3494,
        "meta_mean_anomaly": 247.7713,
        "meta_ephemeris_type": 0,
        "meta_classification_type": "U",
        "meta_norad_cat_id": 34059,
        "meta_element_set_no": 999,
        "meta_rev_at_epoch": 88668,
        "meta_bstar": 0.0011101725,
        "meta_mean_motion_dot": 4.57e-05,
        "meta_mean_motion_ddot": 0,
        "tle_line1": "1 34059U 93036JW  25361.13800987  .00004570  00000+0  11102-2 0  9997",
        "tle_line2": "2 34059  74.0378 159.1128 0018349 235.3494 247.7713 14.53039791886683"
      },
      "geometry": {
        "type": "Point",
        "coordinates": [
          12.877395905019373,
          -63.31872697034724
        ]
      }
    },
    {
      "type": "Feature",
      "properties": {
        "norad_id": 34061,
        "name": "COSMOS 2251 DEB",
        "group": "cosmos-2251-debris",
        "lat": -71.87670883884478,
        "lon": 174.86037887397467,
        "alt_km": 751.4742128079197,
        "timestamp": "2025-12-27T15:27:11.588077+00:00",
        "meta_object_name": "COSMOS 2251 DEB",
        "meta_object_id": "1993-036JY",
        "meta_epoch": "2025-12-27T03:14:51.385344",
        "meta_mean_motion": 14.40386084,
        "meta_eccentricity": 0.00209383,
        "meta_inclination": 74.0383,
        "meta_ra_of_asc_node": 236.7801,
        "meta_arg_of_pericenter": 311.6807,
        "meta_mean_anomaly": 211.0894,
        "meta_ephemeris_type": 0,
        "meta_classification_type": "U",
        "meta_norad_cat_id": 34061,
        "meta_element_set_no": 999,
        "meta_rev_at_epoch": 88387,
        "meta_bstar": 0.00031445669,
        "meta_mean_motion_dot": 9.74e-06,
        "meta_mean_motion_ddot": 0,
        "tle_line1": "1 34061U 93036JY  25361.13531696  .00000974  00000+0  31446-3 0  9996",
        "tle_line2": "2 34061  74.0383 236.7801 0020938 311.6807 211.0894 14.40386084883873"
      },
      "geometry": {
        "type": "Point",
        "coordinates": [
          174.86037887397467,
          -71.87670883884478
        ]
      }
    },
    {
      "type": "Feature",
      "properties": {
        "norad_id": 34062,
        "name": "COSMOS 2251 DEB",
        "group": "cosmos-2251-debris",
        "lat": -49.21024904709047,
        "lon": 89.32509300145547,
        "alt_km": 665.9287081783441,
        "timestamp": "2025-12-27T15:27:11.588092+00:00",
        "meta_object_name": "COSMOS 2251 DEB",
        "meta_object_id": "1993-036JZ",
        "meta_epoch": "2025-12-26T17:30:38.710944",
        "meta_mean_motion": 14.79227071,
        "meta_eccentricity": 0.00724733,
        "meta_inclination": 74.0278,
        "meta_ra_of_asc_node": 110.5102,
        "meta_arg_of_pericenter": 186.6664,
        "meta_mean_anomaly": 294.0438,
        "meta_ephemeris_type": 0,
        "meta_classification_type": "U",
        "meta_norad_cat_id": 34062,
        "meta_element_set_no": 999,
        "meta_rev_at_epoch": 88802,
        "meta_bstar": 0.0029364506,
        "meta_mean_motion_dot": 0.00022844,
        "meta_mean_motion_ddot": 0,
        "tle_line1": "1 34062U 93036JZ  25360.72961471  .00022844  00000+0  29365-2 0  9995",
        "tle_line2": "2 34062  74.0278 110.5102 0072473 186.6664 294.0438 14.79227071888021"
      },
      "geometry": {
        "type": "Point",
        "coordinates": [
          89.32509300145547,
          -49.21024904709047
        ]
      }
    },
    {
      "type": "Feature",
      "properties": {
        "norad_id": 34064,
        "name": "COSMOS 2251 DEB",
        "group": "cosmos-2251-debris",
        "lat": -0.7553644603059277,
        "lon": -116.99785174304833,
        "alt_km": 743.3824363701988,
        "timestamp": "2025-12-27T15:27:11.588102+00:00",
        "meta_object_name": "COSMOS 2251 DEB",
        "meta_object_id": "1993-036KB",
        "meta_epoch": "2025-12-27T02:50:13.037280",
        "meta_mean_motion": 14.4238582,
        "meta_eccentricity": 0.00224202,
        "meta_inclination": 74.0315,
        "meta_ra_of_asc_node": 244.1934,
        "meta_arg_of_pericenter": 308.8499,
        "meta_mean_anomaly": 201.7532,
        "meta_ephemeris_type": 0,
        "meta_classification_type": "U",
        "meta_norad_cat_id": 34064,
        "meta_element_set_no": 999,
        "meta_rev_at_epoch": 88349,
        "meta_bstar": 0.00052948884,
        "meta_mean_motion_dot": 1.73e-05,
        "meta_mean_motion_ddot": 0,
        "tle_line1": "1 34064U 93036KB  25361.11820645  .00001730  00000+0  52949-3 0  9994",
        "tle_line2": "2 34064  74.0315 244.1934 0022420 308.8499 201.7532 14.42385820883496"
      },
      "geometry": {
        "type": "Point",
        "coordinates": [
          -116.99785174304833,
          -0.7553644603059277
        ]
      }
    },
    {
      "type": "Feature",
      "properties": {
        "norad_id": 34065,
        "name": "COSMOS 2251 DEB",
        "group": "cosmos-2251-debris",
        "lat": 35.949531579463695,
        "lon": 38.6866328373696,
        "alt_km": 774.0920055808383,
        "timestamp": "2025-12-27T15:27:11.588113+00:00",
        "meta_object_name": "COSMOS 2251 DEB",
        "meta_object_id": "1993-036KC",
        "meta_epoch": "2025-12-27T02:08:08.317824",
        "meta_mean_motion": 14.38077406,
        "meta_eccentricity": 0.00169321,
        "meta_inclination": 74.0345,
        "meta_ra_of_asc_node": 231.6907,
        "meta_arg_of_pericenter": 326.8531,
        "meta_mean_anomaly": 183.8139,
        "meta_ephemeris_type": 0,
        "meta_classification_type": "U",
        "meta_norad_cat_id": 34065,
        "meta_element_set_no": 999,
        "meta_rev_at_epoch": 88411,
        "meta_bstar": 0.00016680362,
        "meta_mean_motion_dot": 4.8e-06,
        "meta_mean_motion_ddot": 0,
        "tle_line1": "1 34065U 93036KC  25361.08898516  .00000480  00000+0  16680-3 0  9996",
        "tle_line2": "2 34065  74.0345 231.6907 0016932 326.8531 183.8139 14.38077406884115"
      },
      "geometry": {
        "type": "Point",
        "coordinates": [
          38.6866328373696,
          35.949531579463695
        ]
      }
    }
  ]
}